NORAD_CAT_ID,OBJECT_NAME,OBJECT_TYPE,EPOCH,MEAN_MOTION,ECCENTRICITY,INCLINATION,RA_OF_ASC_NODE,ARG_OF_PERICENTER,MEAN_ANOMALY,BSTAR,MEAN_MOTION_DOT,MEAN_MOTION_DDOT,TLE_LINE0,TLE_LINE1,TLE_LINE2,SEMIMAJOR_AXIS,PERIOD,APOGEE,PERIGEE,DECAYED
53912.0,STARLINK-5059,PAYLOAD,2024-03-05 02:39:37,15.08866925,0.0001364,53.2174,11.4152,100.3156,259.799,0.00041284,6.293e-05,0.0,0 STARLINK-5059,1 53912U 22119AC  24065.11085169  .00006293  00000-0  41284-3 0  9995,2 53912  53.2174  11.4152 0001364 100.3156 259.7990 15.08866925 80513,6917.798,95.436,540.607,538.72,0.0
53912.0,STARLINK-5059,PAYLOAD,2024-03-05 05:50:21,15.08921879,0.0001358,53.2174,10.8206,64.4608,295.6524,0.00119,0.00018744,0.0,0 STARLINK-5059,1 53912U 22119AC  24065.24330106  .00018744  00000-0  11900-2 0  9998,2 53912  53.2174  10.8206 0001358  64.4608 295.6524 15.08921879 80951,6917.63,95.432,540.435,538.556,0.0
53912.0,STARLINK-5059,PAYLOAD,2024-03-06 04:05:49,15.08821018,0.0001827,53.2191,6.6533,109.2281,250.8909,-0.00041356,-6.861e-05,0.0,0 STARLINK-5059,1 53912U 22119AC  24066.17070893 -.00006861  00000-0 -41356-3 0  9993,2 53912  53.2191   6.6533 0001827 109.2281 250.8909 15.08821018 80675,6917.938,95.439,541.067,538.54,0.0
53912.0,STARLINK-5059,PAYLOAD,2024-03-06 05:41:12,15.08820161,0.0001831,53.2191,6.3561,109.2875,250.8315,-0.00040139,-6.667e-05,0.0,0 STARLINK-5059,1 53912U 22119AC  24066.23695011 -.00006667  00000-0 -40139-3 0  9997,2 53912  53.2191   6.3561 0001831 109.2875 250.8315 15.08820161 81105,6917.941,95.439,541.073,538.539,0.0
53912.0,STARLINK-5059,PAYLOAD,2024-03-07 02:21:13,15.08824415,0.0001808,53.2189,2.4911,102.8267,257.2927,-0.00019008,-3.311e-05,0.0,0 STARLINK-5059,1 53912U 22119AC  24067.09807644 -.00003311  00000-0 -19008-3 0  9993,2 53912  53.2189   2.4911 0001808 102.8267 257.2927 15.08824415 80819,6917.928,95.439,541.044,538.542,0.0
53912.0,STARLINK-5059,PAYLOAD,2024-03-07 05:32:00,15.08819631,0.0001809,53.2189,1.8968,102.9739,257.1456,9.2568e-05,1.185e-05,0.0,0 STARLINK-5059,1 53912U 22119AC  24067.23056170  .00001185  00000-0  92568-4 0  9997,2 53912  53.2189   1.8968 0001809 102.9739 257.1456 15.08819631 81259,6917.943,95.439,541.059,538.556,0.0
53912.0,STARLINK-5059,PAYLOAD,2024-03-08 02:12:01,15.08855569,0.0001963,53.2197,358.033,100.1459,259.9754,0.0012289,0.00019332,0.0,0 STARLINK-5059,1 53912U 22119AC  24068.09168624  .00019332  00000-0  12289-2 0  9993,2 53912  53.2197 358.0330 0001963 100.1459 259.9754 15.08855569 80966,6917.833,95.437,541.056,538.34,0.0
53912.0,STARLINK-5059,PAYLOAD,2024-03-08 11:44:18,15.08907686,0.0002049,53.2197,356.2498,82.5576,277.5649,0.0017338,0.00027465,0.0,0 STARLINK-5059,1 53912U 22119AC  24068.48910758  .00027465  00000-0  17338-2 0  9995,2 53912  53.2197 356.2498 0002049  82.5576 277.5649 15.08907686 81025,6917.674,95.433,540.956,538.121,0.0
53912.0,STARLINK-5059,PAYLOAD,2024-03-08 19:41:15,15.088401,0.0001651,53.2192,354.7579,87.6932,272.4249,-0.00073966,-0.00012041,0.0,0 STARLINK-5059,1 53912U 22119AC  24068.82031427 -.00012041  00000-0 -73966-3 0  9996,2 53912  53.2192 354.7579 0001651  87.6932 272.4249 15.08840100 81075,6917.88,95.438,540.887,538.603,0.0
53912.0,STARLINK-5059,PAYLOAD,2024-03-09 11:35:06,15.08858614,0.0001598,53.2178,351.7863,78.977,281.1402,0.0024391,0.00038764,0.0,0 STARLINK-5059,1 53912U 22119AC  24069.48271485  .00038764  00000-0  24391-2 0  9994,2 53912  53.2178 351.7863 0001598  78.9770 281.1402 15.08858614 81173,6917.823,95.436,540.794,538.583,0.0
53912.0,STARLINK-5059,PAYLOAD,2024-03-10 03:28:58,15.08860543,0.0001523,53.2171,348.8126,87.6758,272.4409,0.0021106,0.00033481,0.0,0 STARLINK-5059,1 53912U 22119AC  24070.14511579  .00033481  00000-0  21106-2 0  9992,2 53912  53.2171 348.8126 0001523  87.6758 272.4409 15.08860543 81271,6917.818,95.436,540.736,538.629,0.0
53912.0,STARLINK-5059,PAYLOAD,2024-03-10 11:25:53,15.08860121,0.0001683,53.2172,347.3268,85.3706,274.7478,0.0012291,0.00019338,0.0,0 STARLINK-5059,1 53912U 22119AC  24070.47631375  .00019338  00000-0  12291-2 0  9995,2 53912  53.2172 347.3268 0001683  85.3706 274.7478 15.08860121 81327,6917.819,95.436,540.848,538.52,0.0
53912.0,STARLINK-5059,PAYLOAD,2024-03-10 22:33:35,15.08836343,0.0001682,53.2171,345.2469,92.7147,267.4038,0.00086786,0.0001355,0.0,0 STARLINK-5059,1 53912U 22119AC  24070.93999865  .00013550  00000-0  86786-3 0  9998,2 53912  53.2171 345.2469 0001682  92.7147 267.4038 15.08836343 81810,6917.892,95.438,540.92,538.593,0.0
53912.0,STARLINK-5059,PAYLOAD,2024-03-11 03:19:45,15.08840841,0.0001373,53.2165,344.3544,90.2029,269.912,0.0014402,0.00022708,0.0,0 STARLINK-5059,1 53912U 22119AC  24071.13871802  .00022708  00000-0  14402-2 0  9991,2 53912  53.2165 344.3544 0001373  90.2029 269.9120 15.08840841 81420,6917.878,95.438,540.693,538.793,0.0
53912.0,STARLINK-5059,PAYLOAD,2024-03-11 11:16:40,15.08853949,0.000154,53.2167,342.8656,80.6108,279.5058,0.0014245,0.00022464,0.0,0 STARLINK-5059,1 53912U 22119AC  24071.46991732  .00022464  00000-0  14245-2 0  9996,2 53912  53.2167 342.8656 0001540  80.6108 279.5058 15.08853949 81897,6917.838,95.437,540.768,538.637,0.0
53912.0,STARLINK-5059,PAYLOAD,2024-03-12 03:10:32,15.08840105,0.0001551,53.2163,339.8923,87.6447,272.4722,0.00033269,5.011e-05,0.0,0 STARLINK-5059,1 53912U 22119AC  24072.13231948  .00005011  00000-0  33269-3 0  9994,2 53912  53.2163 339.8923 0001551  87.6447 272.4722 15.08840105 81576,6917.88,95.438,540.818,538.672,0.0
53912.0,STARLINK-5059,PAYLOAD,2024-03-12 11:07:27,15.08849148,0.0001534,53.2167,338.4065,87.716,272.4007,0.00064471,9.99e-05,0.0,0 STARLINK-5059,1 53912U 22119AC  24072.46351840  .00009990  00000-0  64471-3 0  9993,2 53912  53.2167 338.4065 0001534  87.7160 272.4007 15.08849148 82041,6917.852,95.437,540.779,538.656,0.0
53912.0,STARLINK-5059,PAYLOAD,2024-03-13 10:58:14,15.08849804,0.0001899,53.2205,333.9424,98.3981,261.7226,0.00032542,4.896e-05,0.0,0 STARLINK-5059,1 53912U 22119AC  24073.45711720  .00004896  00000-0  32542-3 0  9994,2 53912  53.2205 333.9424 0001899  98.3981 261.7226 15.08849804 81778,6917.85,95.437,541.029,538.402,0.0
53912.0,STARLINK-5059,PAYLOAD,2024-03-13 22:05:57,15.08842974,0.0001591,53.2174,331.8641,89.7995,270.3179,0.00017792,2.545e-05,0.0,0 STARLINK-5059,1 53912U 22119AC  24073.92079945  .00002545  00000-0  17792-3 0  9991,2 53912  53.2174 331.8641 0001591  89.7995 270.3179 15.08842974 82268,6917.871,95.437,540.837,538.636,0.0
53912.0,STARLINK-5059,PAYLOAD,2024-03-14 02:52:06,15.08843911,0.0001545,53.2188,330.9678,111.3946,248.7211,0.00012881,1.763e-05,0.0,0 STARLINK-5059,1 53912U 22119AC  24074.11951710  .00001763  00000-0  12881-3 0  9997,2 53912  53.2188 330.9678 0001545 111.3946 248.7211 15.08843911 81874,6917.868,95.437,540.802,538.665,0.0
53912.0,STARLINK-5059,PAYLOAD,2024-03-14 21:56:44,15.08839195,0.0001453,53.2169,327.3989,117.0485,243.0656,7.8436e-05,9.61e-06,0.0,0 STARLINK-5059,1 53912U 22119AC  24074.91439892  .00000961  00000-0  78436-4 0  9995,2 53912  53.2169 327.3989 0001453 117.0485 243.0656 15.08839195 82418,6917.883,95.438,540.753,538.743,0.0
53912.0,STARLINK-5059,PAYLOAD,2024-03-14 23:32:07,15.08840144,0.0001377,53.2175,327.1014,116.1544,243.959,1.8755e-05,1.1e-07,0.0,0 STARLINK-5059,1 53912U 22119AC  24074.98063904  .00000011  00000-0  18755-4 0  9993,2 53912  53.2175 327.1014 0001377 116.1544 243.9590 15.08840144 82000,6917.88,95.438,540.698,538.792,0.0
53912.0,STARLINK-5059,PAYLOAD,2024-03-15 17:01:21,15.08837134,0.0001443,53.2173,323.8305,116.8484,243.2656,0.00011109,1.48e-05,0.0,0 STARLINK-5059,1 53912U 22119AC  24075.70928172  .00001480  00000-0  11109-3 0  9997,2 53912  53.2173 323.8305 0001443 116.8484 243.2656 15.08837134 82537,6917.889,95.438,540.752,538.756,0.0
53912.0,STARLINK-5059,PAYLOAD,2024-03-15 23:22:54,15.08839198,0.0001276,53.2167,322.6408,97.7914,262.3223,0.00010616,1.402e-05,0.0,0 STARLINK-5059,1 53912U 22119AC  24075.97424171  .00001402  00000-0  10616-3 0  9992,2 53912  53.2167 322.6408 0001276  97.7914 262.3223 15.08839198 82578,6917.883,95.438,540.631,538.865,0.0
53912.0,STARLINK-5059,PAYLOAD,2024-03-16 20:02:55,15.08834695,0.0001293,53.2162,318.7776,80.6597,279.4541,6.8523e-05,8.03e-06,0.0,0 STARLINK-5059,1 53912U 22119AC  24076.83536687  .00000803  00000-0  68523-4 0  9999,2 53912  53.2162 318.7776 0001293  80.6597 279.4541 15.08834695 82281,6917.897,95.438,540.656,538.867,0.0
53912.0,STARLINK-5059,PAYLOAD,2024-03-16 21:38:18,15.08834664,0.0001294,53.216,318.4801,80.0957,280.0181,6.3289e-05,7.19e-06,0.0,0 STARLINK-5059,1 53912U 22119AC  24076.90160706  .00000719  00000-0  63289-4 0  9992,2 53912  53.2160 318.4801 0001294  80.0957 280.0181 15.08834664 82712,6917.897,95.438,540.657,538.867,0.0
53912.0,STARLINK-5059,PAYLOAD,2024-03-17 00:49:05,15.08835098,0.0001283,53.217,317.8855,83.9267,276.1872,0.00010747,1.423e-05,0.0,0 STARLINK-5059,1 53912U 22119AC  24077.03408898  .00001423  00000-0  10747-3 0  9997,2 53912  53.2170 317.8855 0001283  83.9267 276.1872 15.08835098 82736,6917.895,95.438,540.648,538.873,0.0
53912.0,STARLINK-5059,PAYLOAD,2024-03-17 21:29:05,15.08840181,0.0001387,53.217,314.0192,82.9856,277.1294,0.00011971,1.618e-05,0.0,0 STARLINK-5059,1 53912U 22119AC  24077.89520735  .00001618  00000-0  11971-3 0  9992,2 53912  53.2170 314.0192 0001387  82.9856 277.1294 15.08840181 82869,6917.88,95.438,540.704,538.785,0.0
53912.0,STARLINK-5059,PAYLOAD,2024-03-18 00:39:51,15.088439,0.0001447,53.2178,313.4248,89.298,270.8178,0.00015202,2.133e-05,0.0,0 STARLINK-5059,1 53912U 22119AC  24078.02768439  .00002133  00000-0  15202-3 0  9997,2 53912  53.2178 313.4248 0001447  89.2980 270.8178 15.08843900 82466,6917.868,95.437,540.734,538.732,0.0
53912.0,STARLINK-5059,PAYLOAD,2024-03-18 21:19:52,15.0884104,0.0001475,53.218,309.5597,92.9522,267.1639,0.00013501,1.861e-05,0.0,0 STARLINK-5059,1 53912U 22119AC  24078.88880692  .00001861  00000-0  13501-3 0  9994,2 53912  53.2180 309.5597 0001475  92.9522 267.1639 15.08841040 82594,6917.877,95.437,540.763,538.722,0.0
